SL-3 R/B                
1 19046U 88032B   26077.22503848  .00004401  00000+0  20592-3 0  9994
2 19046  97.5198  60.4463 0025188 200.3426 159.6808 15.20005937 53406
SL-16 R/B               
1 19120U 88039B   26077.29489602  .00000011  00000+0  28042-4 0  9994
2 19120  71.0147  50.3501 0023197 321.8864  38.0619 14.19617718959604
COSMOS 1953             
1 19210U 88050A   26077.13560916  .00005801  00000+0  20650-3 0  9996
2 19210  82.5101 149.7532 0012664  96.0654 264.2029 15.28664534 39070
SL-8 R/B                
1 19257U 88053B   26077.13990508  .00000285  00000+0  10099-3 0  9991
2 19257  74.0450  96.8888 0021533 275.0720 153.2675 14.38921342977818
COSMOS 1975             
1 19573U 88093A   26077.10644970  .00005017  00000+0  18109-3 0  9990
2 19573  82.5167 109.2340 0012862 135.6131 224.6142 15.28183045 20699
SL-14 R/B               
1 19574U 88093B   26077.29292693  .00000553  00000+0  60805-4 0  9993
2 19574  82.5323  33.9679 0021067  14.1297  98.6018 14.85667188  2297
SL-16 R/B               
1 19650U 88102B   26077.31046828 -.00000012  00000+0  18173-4 0  9991
2 19650  70.9991 133.3590 0014570 348.1135  11.9642 14.16156064928112
INTERCOSMOS 24          
1 20261U 89080A   26077.30158504  .00000593  00000+0  17639-3 0  9999
2 20261  82.6017  98.7948 1186669 272.8107  73.8069 12.59570532667883
SL-14 R/B               
1 20262U 89080C   26077.27796403  .00000471  00000+0  13511-3 0  9992
2 20262  82.5967 167.6751 1230774 165.1266 198.9758 12.50503360661224
DELTA 1 R/B             
1 20323U 89089B   26077.10485355  .00000364  00000+0  98399-4 0  9991
2 20323  97.0700 283.2048 0070716  95.8922 265.0342 14.50670375896955
ARIANE 40 R/B           
1 20443U 90005H   26077.15244773  .00000252  00000+0  93601-4 0  9993
2 20443  98.3065 137.5610 0010378 172.8021 187.3319 14.39876092894023
DELTA 2 R/B(1)          
1 20453U 90008B   26076.84109724  .00047486  00000+0  53989-3 0  9992
2 20453  35.6029 121.3131 0082403 334.1044  25.5582 15.57035785927404
